     3.04           N: GNSS NAV DATA    G: GPS              RINEX VERSION / TYPE
Mdb2Rinex 5.6.46W                       20170714 232753 UTC PGM / RUN BY / DATE
GPSA   1.1176D-08  7.4506D-09 -5.9605D-08 -5.9605D-08       IONOSPHERIC CORR
GPSB   9.0112D+04  1.6384D+04 -1.9661D+05 -6.5536D+04       IONOSPHERIC CORR
GPUT -9.3132257462D-10-1.776356839D-15 503808 1942          TIME SYSTEM CORR
    18    18  1929     7                                    LEAP SECONDS
                                                            END OF HEADER
G01 2016 10 24 12 00 00 3.822799772024D-05 1.250555214938D-12 0.000000000000D+00
     6.600000000000D+01-7.596875000000D+01 4.628764038728D-09 1.028832164429D+00
    -3.796070814133D-06 5.971604026854D-03 7.659196853638D-06 5.153703645706D+03
     1.296000000000D+05 3.725290298462D-08 1.368342745631D+00 9.872019290924D-08
     9.651963719831D-01 2.323437500000D+02 5.634498192952D-01-8.237486248674D-09
    -3.035840745458D-10 1.000000000000D+00 1.920000000000D+03 0.000000000000D+00
     2.000000000000D+00 0.000000000000D+00 5.122274160385D-09 6.600000000000D+01
     1.223400000000D+05                   
G02 2017 03 17 14 00 00 4.572109319270D-04-7.162270776462D-12 0.000000000000D+00
     1.900000000000D+01 8.468750000000D+00 5.131999269992D-09 1.322448669204D+00
     3.781169652939D-07 1.674207614269D-02 6.427988409996D-06 5.153749189377D+03
     4.824000000000D+05-4.135072231293D-07-1.192099269982D+00-5.401670932770D-08
     9.454049921641D-01 2.483125000000D+02-2.004020133768D+00-8.601786838369D-09
     2.807259702475D-10 1.000000000000D+00 1.940000000000D+03 0.000000000000D+00
     2.000000000000D+00 0.000000000000D+00-2.048909664154D-08 1.900000000000D+01
     4.751400000000D+05                   
G03 2016 10 24 14 00 00-9.423587471247D-05-1.932676241267D-12 0.000000000000D+00
     2.200000000000D+01 6.156250000000D+00 4.509116191542D-09 7.960489648061D-01
     2.998858690262D-07 3.021535230801D-04 1.059472560883D-05 5.153599290848D+03
     1.368000000000D+05-3.166496753693D-08 2.410369692361D+00 3.166496753693D-08
     9.595817816329D-01 1.727500000000D+02 7.354893526094D-01-7.952474234685D-09
     6.178828976244D-11 1.000000000000D+00 1.920000000000D+03 0.000000000000D+00
     2.000000000000D+00 0.000000000000D+00 1.862645149231D-09 2.200000000000D+01
     1.295400000000D+05                   
G04 2017 03 28 16 00 00 1.103617250919D-06 5.684341886081D-13 0.000000000000D+00
     1.200000000000D+01-9.609375000000D+01 5.241289624536D-09-6.364972454651D-01
    -5.027279257774D-06 9.072402608581D-03 1.157447695732D-05 5.153740928650D+03
     2.304000000000D+05 3.911554813385D-08 2.820302389372D+00 1.415610313416D-07
     9.824973429694D-01 1.654687500000D+02 8.828731908465D-01-7.948902869259D-09
    -6.214544434613D-10 1.000000000000D+00 1.942000000000D+03 0.000000000000D+00
     2.000000000000D+00 1.000000000000D+00-1.955777406693D-08 1.200000000000D+01
     2.231400000000D+05 1.000000000000D+00
G05 2017 03 29 14 00 00-5.333172157407D-05 1.932676241267D-12 0.000000000000D+00
     4.000000000000D+00-6.846875000000D+01 4.959492372336D-09-1.956183806839D+00
    -3.812834620476D-06 4.904461558908D-03 9.909272193909D-06 5.153714500427D+03
     3.096000000000D+05 1.154839992523D-07-3.630922018248D-01-1.117587089539D-08
     9.470356601337D-01 1.774375000000D+02 5.459159590652D-01-8.265701012533D-09
    -5.043067075050D-10 1.000000000000D+00 1.942000000000D+03 0.000000000000D+00
     2.000000000000D+00 0.000000000000D+00-1.071020960808D-08 4.000000000000D+00
     3.023400000000D+05                   
G06 2016 12 07 14 00 00 2.828491851687D-04 5.002220859751D-12 0.000000000000D+00
     7.300000000000D+01-6.209375000000D+01 4.735197123296D-09-2.184597824605D+00
    -3.159046173096D-06 3.757644444704D-04 5.874782800674D-06 5.153573476791D+03
     3.096000000000D+05 5.029141902924D-08 6.067411976863D-01 9.313225746155D-09
     9.657893029211D-01 2.698125000000D+02-1.525607126723D+00-8.202841961236D-09
    -4.643050527386D-11 1.000000000000D+00 1.926000000000D+03 0.000000000000D+00
     2.000000000000D+00 0.000000000000D+00 4.190951585770D-09 7.300000000000D+01
     3.023400000000D+05                   
G07 2016 12 08 11 59 44 4.040002822876D-04-3.410605131648D-12 0.000000000000D+00
     7.000000000000D+00 1.653125000000D+01 4.702696010384D-09 1.994248189173D+00
     7.934868335724D-07 1.004637498409D-02 4.703179001808D-06 5.153615152359D+03
     3.887840000000D+05-1.844018697739D-07-2.510720749460D+00 2.607703208923D-08
     9.644139258597D-01 2.929375000000D+02-2.613576069225D+00-8.322846412057D-09
    -1.710785541009D-10 1.000000000000D+00 1.926000000000D+03 0.000000000000D+00
     2.000000000000D+00 0.000000000000D+00-1.117587089539D-08 7.000000000000D+00
     3.815100000000D+05                   
G08 2016 12 08 11 59 44-4.168041050434D-05-1.364242052659D-12 0.000000000000D+00
     1.100000000000D+01 2.387500000000D+01 4.493401650763D-09-7.803244533599D-01
     1.078471541405D-06 2.183074131608D-03 8.502975106239D-06 5.153553295135D+03
     3.887840000000D+05 1.117587089539D-08-4.469852739994D-01-2.793967723846D-08
     9.654337304415D-01 2.187812500000D+02-9.763728276531D-01-8.148910879413D-09
     4.450185497884D-10 1.000000000000D+00 1.926000000000D+03 0.000000000000D+00
     2.000000000000D+00 0.000000000000D+00 5.122274160385D-09 1.100000000000D+01
     3.815100000000D+05                   
G09 2016 12 08 12 00 00 2.596229314804D-04 7.389644451905D-12 0.000000000000D+00
     4.400000000000D+01 6.312500000000D+01 4.719482138427D-09-1.310820474671D+00
     3.235414624214D-06 7.873361464590D-04 9.106472134590D-06 5.153732053757D+03
     3.888000000000D+05-1.676380634308D-08 2.694323032203D+00-7.450580596924D-09
     9.543353507094D-01 1.993750000000D+02 1.762146870296D+00-8.124266592802D-09
     1.292911055994D-10 1.000000000000D+00 1.926000000000D+03 0.000000000000D+00
     2.000000000000D+00 0.000000000000D+00 1.396983861923D-09 4.400000000000D+01
     3.815400000000D+05                   
G10 2017 03 28 16 00 00-8.677225559950D-05 6.593836587854D-12 0.000000000000D+00
     5.400000000000D+01-7.525000000000D+01 4.468400316426D-09 2.350209990765D-01
    -3.874301910400D-06 2.381586120464D-03 1.165829598904D-05 5.153678638458D+03
     2.304000000000D+05 6.332993507385D-08-3.501839291034D-01 3.911554813385D-08
     9.602971749062D-01 1.541875000000D+02-2.823102100048D+00-8.046406207995D-09
    -4.935920006055D-10 1.000000000000D+00 1.942000000000D+03 0.000000000000D+00
     2.000000000000D+00 0.000000000000D+00 2.328306436539D-09 5.400000000000D+01
     2.231400000000D+05                   
G11 2016 10 24 12 00 00-6.677629426122D-04-1.023181539495D-12 0.000000000000D+00
     4.900000000000D+01-6.015625000000D+01 6.483484416009D-09 4.652782672903D-01
    -3.101304173470D-06 1.680813741405D-02 4.973262548447D-06 5.153679784775D+03
     1.296000000000D+05-2.030283212662D-07 9.806774436204D-01-1.676380634308D-08
     8.981023436018D-01 2.537500000000D+02 1.589776041628D+00-9.448965165859D-09
    -1.625067719280D-10 1.000000000000D+00 1.920000000000D+03 0.000000000000D+00
     4.000000000000D+00 0.000000000000D+00-1.210719347000D-08 4.900000000000D+01
     1.223400000000D+05                   
G12 2017 03 29 14 00 00 3.863214515150D-04-5.684341886081D-13 0.000000000000D+00
     1.600000000000D+01-1.077500000000D+02 3.842302920276D-09 1.712859403241D-01
    -5.602836608887D-06 6.609363248572D-03 9.814277291298D-06 5.153561927795D+03
     3.096000000000D+05 2.235174179077D-08 2.851208633084D+00 1.639127731323D-07
     9.897147707357D-01 2.048125000000D+02 8.182799507016D-01-7.906400867341D-09
    -5.939533309629D-10 1.000000000000D+00 1.942000000000D+03 0.000000000000D+00
     2.000000000000D+00 0.000000000000D+00-1.210719347000D-08 1.600000000000D+01
     3.023400000000D+05                   
G13 2016 12 08 12 00 00-5.895271897316D-05-1.932676241267D-12 0.000000000000D+00
     3.300000000000D+01 7.218750000000D+01 4.272677767148D-09 3.031006554938D+00
     3.812834620476D-06 4.054344492033D-03 8.255243301392D-06 5.153689090729D+03
     3.888000000000D+05-5.587935447693D-09 2.817930359870D+00 4.470348358154D-08
     9.706272505438D-01 2.263437500000D+02 1.881217775311D+00-7.897829057413D-09
     1.042900557580D-10 1.000000000000D+00 1.926000000000D+03 0.000000000000D+00
     2.000000000000D+00 0.000000000000D+00-1.117587089539D-08 3.300000000000D+01
     3.815400000000D+05                   
G14 2016 06 03 18 00 00-1.739710569382D-05-2.046363078989D-12 0.000000000000D+00
     7.000000000000D+01 8.068750000000D+01 4.061597724814D-09 1.035152941909D+00
     4.202127456665D-06 8.696856792085D-03 1.234188675880D-05 5.154030038834D+03
     4.968000000000D+05-1.452863216400D-07-1.219398073281D-01-3.725290298462D-09
     9.643225461447D-01 1.410000000000D+02-1.966208031657D+00-7.876757024405D-09
    -1.242908970189D-10 1.000000000000D+00 1.899000000000D+03 0.000000000000D+00
     2.000000000000D+00 0.000000000000D+00-9.313225746155D-09 7.000000000000D+01
     4.895400000000D+05                   
G15 2017 03 29 14 00 00-3.466918133199D-04-9.094947017729D-13 0.000000000000D+00
     4.700000000000D+01 9.059375000000D+01 5.074497266833D-09 2.653937401180D+00
     4.602596163750D-06 9.085862664506D-03 1.349113881588D-05 5.153776340485D+03
     3.096000000000D+05-7.823109626770D-08 6.290580597989D-01-1.210719347000D-07
     9.297322372967D-01 1.008437500000D+02 5.788697819185D-01-8.132838402730D-09
     2.389385356238D-10 1.000000000000D+00 1.942000000000D+03 0.000000000000D+00
     2.000000000000D+00 0.000000000000D+00-1.071020960808D-08 4.700000000000D+01
     3.023400000000D+05                   
